ONEWEB-0056             
1 45159U 20008AE  24233.07434007 -.00000476  00000+0 -13999-2 0  9994
2 45159  87.8982 168.7848 0002083  73.3145 286.8211 13.10368313221705
ONEWEB-0057             
1 45160U 20008AF  24233.08097809 -.00000623  00000+0 -18205-2 0  9991
2 45160  87.8988 168.7865 0001966  74.0175 286.1168 13.10370992221601
ONEWEB-0058             
1 45161U 20008AG  24232.53334054 -.00000243  00000+0 -73355-3 0  9993
2 45161  87.8980 168.9257 0001868  76.1922 283.9413 13.10369641221860
ONEWEB-0059             
1 45162U 20008AH  24232.52988832 -.00000044  00000+0 -16289-3 0  9994
2 45162  87.8981 168.9097 0001876  80.6824 279.4515 13.10369753221759
ONEWEB-0062             
1 45163U 20008AJ  24233.09093665 -.00000487  00000+0 -14317-2 0  9999
2 45163  87.8989 168.7827 0001941  87.5349 272.6001 13.10373093221700
ONEWEB-0065             
1 45164U 20008AK  24232.53487526 -.00000303  00000+0 -90472-3 0  9995
2 45164  87.8989 168.9013 0002152  73.4264 286.7100 13.10377793221319
ONEWEB-0066             
1 45424U 20020A   24233.15219154  .00000435  00000+0  11925-2 0  9996
2 45424  87.8999 153.6749 0001631  66.2297 293.9001 13.11417621215390
ONEWEB-0067             
1 45425U 20020B   24233.18961857 -.00000495  00000+0 -14331-2 0  9996
2 45425  87.8982 153.6213 0001906  68.5158 291.6173 13.11416173215458
